[
    {
        "Altitude(m)": 556769.5594262427,
        "Argument of Periapsis(deg)": 0.019868973332140504,
        "Eccentricity": 0.0,
        "Inclination(deg)": 53.0,
        "Latitude(deg)": 39.1983284874776,
        "Longitude(deg)": 80.29455228833386,
        "Mean Anomaly(deg)": 52.092978602732785,
        "RAAN(deg)": 144.9704301055841,
        "Satellite Name": "Starlink Shell 1 639",
        "Satellite Number": 639,
        "Semi-Major Axis(m)": 6931778.249405717,
        "Time(s)": 570
    },
    {
        "Altitude(m)": 556852.8561157662,
        "Argument of Periapsis(deg)": 0.02021755181165174,
        "Eccentricity": 0.0,
        "Inclination(deg)": 53.0,
        "Latitude(deg)": 39.59399617801854,
        "Longitude(deg)": 80.88229562967621,
        "Mean Anomaly(deg)": 52.719809806289476,
        "RAAN(deg)": 144.9699113355066,
        "Satellite Name": "Starlink Shell 1 639",
        "Satellite Number": 639,
        "Semi-Major Axis(m)": 6931778.249405717,
        "Time(s)": 580
    },
    {
        "Altitude(m)": 556935.9754869504,
        "Argument of Periapsis(deg)": 0.020566130291162974,
        "Eccentricity": 0.0,
        "Inclination(deg)": 53.0,
        "Latitude(deg)": 39.98619302345121,
        "Longitude(deg)": 81.47719796317212,
        "Mean Anomaly(deg)": 53.3466410098462,
        "RAAN(deg)": 144.96939256542913,
        "Satellite Name": "Starlink Shell 1 639",
        "Satellite Number": 639,
        "Semi-Major Axis(m)": 6931778.249405717,
        "Time(s)": 590
    },
    {
        "Altitude(m)": 557018.8635737802,
        "Argument of Periapsis(deg)": 0.020914708770674213,
        "Eccentricity": 0.0,
        "Inclination(deg)": 53.0,
        "Latitude(deg)": 40.37483171513763,
        "Longitude(deg)": 82.07937713786598,
        "Mean Anomaly(deg)": 53.97347221340289,
        "RAAN(deg)": 144.96887379535164,
        "Satellite Name": "Starlink Shell 1 639",
        "Satellite Number": 639,
        "Semi-Major Axis(m)": 6931778.249405717,
        "Time(s)": 600
    },
    {
        "Altitude(m)": 557101.4667382772,
        "Argument of Periapsis(deg)": 0.021263287250185448,
        "Eccentricity": 0.0,
        "Inclination(deg)": 53.0,
        "Latitude(deg)": 40.759823106461916,
        "Longitude(deg)": 82.6889498844369,
        "Mean Anomaly(deg)": 54.60030341695962,
        "RAAN(deg)": 144.96835502527415,
        "Satellite Name": "Starlink Shell 1 639",
        "Satellite Number": 639,
        "Semi-Major Axis(m)": 6931778.249405717,
        "Time(s)": 610
    },
    {
        "Altitude(m)": 557183.7316977296,
        "Argument of Periapsis(deg)": 0.021611865729696686,
        "Eccentricity": 0.0,
        "Inclination(deg)": 53.0,
        "Latitude(deg)": 41.14107620170219,
        "Longitude(deg)": 83.30603207218238,
        "Mean Anomaly(deg)": 55.22713462051634,
        "RAAN(deg)": 144.9678362551967,
        "Satellite Name": "Starlink Shell 1 639",
        "Satellite Number": 639,
        "Semi-Major Axis(m)": 6931778.249405717,
        "Time(s)": 620
    },
    {
        "Altitude(m)": 557265.6055516347,
        "Argument of Periapsis(deg)": 0.02196044420920792,
        "Eccentricity": 0.0,
        "Inclination(deg)": 53.0,
        "Latitude(deg)": 41.5184981481951,
        "Longitude(deg)": 83.93073726833795,
        "Mean Anomaly(deg)": 55.85396582407306,
        "RAAN(deg)": 144.96731748511925,
        "Satellite Name": "Starlink Shell 1 639",
        "Satellite Number": 639,
        "Semi-Major Axis(m)": 6931778.249405717,
        "Time(s)": 630
    },
    {
        "Altitude(m)": 557347.0358084914,
        "Argument of Periapsis(deg)": 0.02230902268871916,
        "Eccentricity": 0.0,
        "Inclination(deg)": 53.0,
        "Latitude(deg)": 41.891994232113724,
        "Longitude(deg)": 84.56317780167728,
        "Mean Anomaly(deg)": 56.480797027629755,
        "RAAN(deg)": 144.96679871504173,
        "Satellite Name": "Starlink Shell 1 639",
        "Satellite Number": 639,
        "Semi-Major Axis(m)": 6931778.249405717,
        "Time(s)": 640
    },
    {
        "Altitude(m)": 557427.9704123033,
        "Argument of Periapsis(deg)": 0.022657601168230398,
        "Eccentricity": 0.0,
        "Inclination(deg)": 53.0,
        "Latitude(deg)": 42.261467878192114,
        "Longitude(deg)": 85.20346328703378,
        "Mean Anomaly(deg)": 57.107628231186474,
        "RAAN(deg)": 144.96627994496427,
        "Satellite Name": "Starlink Shell 1 639",
        "Satellite Number": 639,
        "Semi-Major Axis(m)": 6931778.249405717,
        "Time(s)": 650
    },
    {
        "Altitude(m)": 557508.3577688346,
        "Argument of Periapsis(deg)": 0.023006179647741636,
        "Eccentricity": 0.0,
        "Inclination(deg)": 53.0,
        "Latitude(deg)": 42.62682065374851,
        "Longitude(deg)": 85.85170081279591,
        "Mean Anomaly(deg)": 57.7344594347432,
        "RAAN(deg)": 144.9657611748868,
        "Satellite Name": "Starlink Shell 1 639",
        "Satellite Number": 639,
        "Semi-Major Axis(m)": 6931778.249405717,
        "Time(s)": 660
    },
    {
        "Altitude(m)": 557588.1467716197,
        "Argument of Periapsis(deg)": 0.023354758127252868,
        "Eccentricity": 0.0,
        "Inclination(deg)": 53.0,
        "Latitude(deg)": 42.98795227737224,
        "Longitude(deg)": 86.50799511009362,
        "Mean Anomaly(deg)": 58.36129063829992,
        "RAAN(deg)": 144.96524240480932,
        "Satellite Name": "Starlink Shell 1 639",
        "Satellite Number": 639,
        "Semi-Major Axis(m)": 6931778.249405717,
        "Time(s)": 670
    },
    {
        "Altitude(m)": 557667.2868276712,
        "Argument of Periapsis(deg)": 0.023703336606764106,
        "Eccentricity": 0.0,
        "Inclination(deg)": 53.0,
        "Latitude(deg)": 43.344760632652495,
        "Longitude(deg)": 87.17244719057054,
        "Mean Anomaly(deg)": 58.98812184185664,
        "RAAN(deg)": 144.96472363473185,
        "Satellite Name": "Starlink Shell 1 639",
        "Satellite Number": 639,
        "Semi-Major Axis(m)": 6931778.249405717,
        "Time(s)": 680
    },
    {
        "Altitude(m)": 557745.7278829139,
        "Argument of Periapsis(deg)": 0.024051915086275345,
        "Eccentricity": 0.0,
        "Inclination(deg)": 53.0,
        "Latitude(deg)": 43.69714178734245,
        "Longitude(deg)": 87.84515447836066,
        "Mean Anomaly(deg)": 59.61495304541335,
        "RAAN(deg)": 144.9642048646544,
        "Satellite Name": "Starlink Shell 1 639",
        "Satellite Number": 639,
        "Semi-Major Axis(m)": 6931778.249405717,
        "Time(s)": 690
    },
    {
        "Altitude(m)": 557823.4204473186,
        "Argument of Periapsis(deg)": 0.024400493565786583,
        "Eccentricity": 0.0,
        "Inclination(deg)": 53.0,
        "Latitude(deg)": 44.04499001836069,
        "Longitude(deg)": 88.52621092336864,
        "Mean Anomaly(deg)": 60.241784248970035,
        "RAAN(deg)": 144.9636860945769,
        "Satellite Name": "Starlink Shell 1 639",
        "Satellite Number": 639,
        "Semi-Major Axis(m)": 6931778.249405717,
        "Time(s)": 700
    },
    {
        "Altitude(m)": 557900.3156197092,
        "Argument of Periapsis(deg)": 0.024749072045297815,
        "Eccentricity": 0.0,
        "Inclination(deg)": 53.0,
        "Latitude(deg)": 44.38819784304328,
        "Longitude(deg)": 89.21570558307482,
        "Mean Anomaly(deg)": 60.8686154525268,
        "RAAN(deg)": 144.96316732449944,
        "Satellite Name": "Starlink Shell 1 639",
        "Satellite Number": 639,
        "Semi-Major Axis(m)": 6931778.249405717,
        "Time(s)": 710
    },
    {
        "Altitude(m)": 557976.3651122644,
        "Argument of Periapsis(deg)": 0.025097650524809053,
        "Eccentricity": 0.0,
        "Inclination(deg)": 53.0,
        "Latitude(deg)": 44.72665605706678,
        "Longitude(deg)": 89.9137226988524,
        "Mean Anomaly(deg)": 61.495446656083494,
        "RAAN(deg)": 144.96264855442197,
        "Satellite Name": "Starlink Shell 1 639",
        "Satellite Number": 639,
        "Semi-Major Axis(m)": 6931778.249405717,
        "Time(s)": 720
    },
    {
        "Altitude(m)": 558051.5212746649,
        "Argument of Periapsis(deg)": 0.02544622900432029,
        "Eccentricity": 0.0,
        "Inclination(deg)": 53.0,
        "Latitude(deg)": 45.06025377946837,
        "Longitude(deg)": 90.62034175431033,
        "Mean Anomaly(deg)": 62.122277859640214,
        "RAAN(deg)": 144.96212978434448,
        "Satellite Name": "Starlink Shell 1 639",
        "Satellite Number": 639,
        "Semi-Major Axis(m)": 6931778.249405717,
        "Time(s)": 730
    },
    {
        "Altitude(m)": 558125.7371179251,
        "Argument of Periapsis(deg)": 0.02579480748383153,
        "Eccentricity": 0.0,
        "Inclination(deg)": 53.0,
        "Latitude(deg)": 45.38887850518981,
        "Longitude(deg)": 91.33563600334426,
        "Mean Anomaly(deg)": 62.74910906319691,
        "RAAN(deg)": 144.96161101426702,
        "Satellite Name": "Starlink Shell 1 639",
        "Satellite Number": 639,
        "Semi-Major Axis(m)": 6931778.249405717,
        "Time(s)": 740
    },
    {
        "Altitude(m)": 558198.966337828,
        "Argument of Periapsis(deg)": 0.026143385963342765,
        "Eccentricity": 0.0,
        "Inclination(deg)": 53.0,
        "Latitude(deg)": 45.71241616557369,
        "Longitude(deg)": 92.05967249439168,
        "Mean Anomaly(deg)": 63.37594026675361,
        "RAAN(deg)": 144.96109224418956,
        "Satellite Name": "Starlink Shell 1 639",
        "Satellite Number": 639,
        "Semi-Major Axis(m)": 6931778.249405717,
        "Time(s)": 750
    }
]